MEAN_MOTION;ECCENTRICITY;INCLINATION;RA_OF_ASC_NODE;ARG_OF_PERICENTER;MEAN_ANOMALY;BSTAR;MEAN_MOTION_DOT;MEAN_MOTION_DDOT;TYPE
0.9922515;0.0015672;14.6648;348.8262;196.5411;338.4898;0;4.3E-7;0;Intelsat
0.9922515;0.0015672;14.6648;348.8262;196.5411;338.4898;0;4.3E-7;0;Intelsat
0.99225626;0.0015673;14.664;348.8162;196.5611;337.2167;0;2.7E-7;0;Intelsat
0.99225871;0.001567;14.6636;348.811;196.5235;165.5566;0;1.7E-7;0;Intelsat
0.99226065;0.0015679;14.6632;348.8062;196.5192;336.0147;0;8.0E-8;0;Intelsat
0.99226312;0.0015677;14.6628;348.801;196.5056;164.5384;0;-3.0E-8;0;Intelsat
0.99227015;0.0015663;14.6617;348.7861;196.4915;344.1189;0;-3.6E-7;0;Intelsat
0.99227015;0.0015663;14.6617;348.7861;196.4915;344.1189;0;-3.6E-7;0;Intelsat
0.99227432;0.0015654;14.661;348.7765;196.4788;332.3565;0;-5.7E-7;0;Intelsat
0.99227861;0.0015645;14.6602;348.7666;196.418;331.1696;0;-8.0E-7;0;Intelsat
0.99228274;0.0015631;14.6593;348.7563;196.3643;345.6202;0;-1.03E-6;0;Intelsat
0.99228941;0.0015584;14.6575;348.7339;196.2095;81.8672;0;-1.52E-6;0;Intelsat
0.9922896;0.0015583;14.6575;348.7333;196.2062;106.4165;0;-1.53E-6;0;Intelsat
0.99229151;0.0015567;14.6568;348.7253;196.153;35.904;0;-1.69E-6;0;Intelsat
0.9922933;0.0015551;14.6561;348.7167;196.0704;352.4743;0;-1.85E-6;0;Intelsat
0.99229474;0.0015532;14.6553;348.7069;195.9575;349.7915;0;-2.03E-6;0;Intelsat
0.99229564;0.0015515;14.6544;348.6971;195.8297;348.6856;0;-2.18E-6;0;Intelsat
0.99229609;0.00155;14.6536;348.6871;195.6917;351.5174;0;-2.32E-6;0;Intelsat
0.99229603;0.0015486;14.6528;348.6774;195.5749;348.9569;0;-2.44E-6;0;Intelsat
0.99229524;0.0015476;14.652;348.6677;195.4156;345.4383;0;-2.53E-6;0;Intelsat
0.99229389;0.0015466;14.6511;348.6579;195.2209;344.3993;0;-2.6E-6;0;Intelsat
0.99229244;0.0015466;14.6503;348.6481;195.0497;343.3213;0;-2.66E-6;0;Intelsat
0.99229002;0.0015479;14.6494;348.6368;194.7219;37.6025;0;-2.68E-6;0;Intelsat
0.99228797;0.0015485;14.6487;348.6286;194.5676;341.3531;0;-2.68E-6;0;Intelsat
0.9922853;0.0015499;14.6479;348.6188;194.3867;340.3029;0;-2.66E-6;0;Intelsat
0.99228224;0.0015519;14.647;348.6085;194.2096;359.9263;0;-2.62E-6;0;Intelsat
0.99227833;0.0015546;14.6461;348.5975;194.0302;44.5183;0;-2.56E-6;0;Intelsat
0.992274;0.0015566;14.6451;348.5857;194.02;115.1625;0;-2.47E-6;0;Intelsat
0.99226817;0.0015613;14.6437;348.5691;193.7967;0.2941;0;-2.3E-6;0;Intelsat
0.99226457;0.001564;14.6429;348.5592;193.7145;359.1206;0;-2.19E-6;0;Intelsat
0.99226105;0.0015664;14.6421;348.5493;193.653;357.9649;0;-2.06E-6;0;Intelsat
0.99225743;0.0015688;14.6413;348.5395;193.589;356.7832;0;-1.92E-6;0;Intelsat
0.99225395;0.0015706;14.6405;348.5297;193.5564;355.5752;0;-1.76E-6;0;Intelsat
0.99224718;0.0015732;14.6388;348.5087;193.404;43.9216;0;-1.38E-6;0;Intelsat
0.99224455;0.0015738;14.6379;348.4987;193.3396;51.3194;0;-1.18E-6;0;Intelsat
0.99224261;0.0015733;14.6372;348.4906;193.389;350.3005;0;-1.02E-6;0;Intelsat
0.99224069;0.0015737;14.6364;348.4808;193.3211;349.555;0;-8.1E-7;0;Intelsat
0.99223902;0.001574;14.6356;348.4711;193.2271;348.8702;0;-6.1E-7;0;Intelsat
0.99223855;0.0015731;14.6353;348.4678;193.1924;107.4259;0;-5.4E-7;0;Intelsat
0.9922374;0.0015741;14.6344;348.4567;193.0189;158.1351;0;-3.2E-7;0;Intelsat
0.99223711;0.0015744;14.6339;348.4516;192.9982;346.1328;0;-2.2E-7;0;Intelsat
0.99223669;0.0015742;14.6331;348.4413;192.8922;7.6453;0;-3.0E-8;0;Intelsat
0.99223703;0.0015748;14.6323;348.4322;192.7677;343.8635;0;1.2E-7;0;Intelsat
0.99223802;0.001576;14.6312;348.42;192.5746;70.3599;0;2.9E-7;0;Intelsat
0.99223892;0.0015764;14.6305;348.4127;192.4789;341.646;0;3.8E-7;0;Intelsat
0.99224046;0.0015777;14.6297;348.403;192.321;340.5353;0;4.7E-7;0;Intelsat
0.99224331;0.001583;14.6286;348.391;191.9727;65.3345;0;5.5E-7;0;Intelsat
0.99224364;0.0015847;14.6284;348.3885;191.887;159.0551;0;5.7E-7;0;Intelsat
0.99224638;0.0015871;14.6275;348.3788;191.7229;157.9731;0;5.9E-7;0;Intelsat
0.99224835;0.001588;14.6271;348.3739;191.5904;337.4766;0;6.0E-7;0;Intelsat
0.99224995;0.0015904;14.6266;348.3691;191.5379;156.9357;0;5.9E-7;0;Intelsat
0.99225211;0.0015919;14.6262;348.3635;191.3958;2.0064;0;5.7E-7;0;Intelsat
0.99225359;0.0015941;14.6258;348.3594;191.3635;155.8327;0;5.5E-7;0;Intelsat
0.99225611;0.0015962;14.6251;348.3523;191.2416;56.4179;0;5.1E-7;0;Intelsat
0.99225973;0.0015993;14.6244;348.3441;191.0989;359.7963;0;4.3E-7;0;Intelsat
0.99226472;0.0016053;14.6234;348.3325;190.947;66.5415;0;2.8E-7;0;Intelsat
0.99226831;0.0016086;14.6227;348.3246;190.8381;357.5901;0;1.6E-7;0;Intelsat
0.9922704;0.0016113;14.6222;348.3199;190.8177;169.1484;0;7.0E-8;0;Intelsat
0.99227712;0.0016216;14.6209;348.3039;190.5965;29.3911;0;-2.7E-7;0;Intelsat
0.99227759;0.0016226;14.6208;348.3029;190.5901;63.0669;0;-2.9E-7;0;Intelsat
0.99228135;0.0016261;14.6201;348.2948;190.5305;359.9368;0;-4.9E-7;0;Intelsat
0.99228518;0.0016308;14.6192;348.285;190.4786;355.9167;0;-7.4E-7;0;Intelsat
0.99228742;0.0016324;14.6188;348.2802;190.494;172.3697;0;-8.7E-7;0;Intelsat
0.99228919;0.0016342;14.6184;348.2754;190.4799;351.4199;0;-1.01E-6;0;Intelsat
0.99229114;0.0016371;14.618;348.2704;190.453;171.1651;0;-1.15E-6;0;Intelsat
0.99229447;0.0016412;14.6172;348.2606;190.4259;169.9576;0;-1.43E-6;0;Intelsat
0.9922976;0.0016455;14.6163;348.2508;190.3903;168.7574;0;-1.7E-6;0;Intelsat
0.99230017;0.0016491;14.6155;348.241;190.3634;167.5546;0;-1.96E-6;0;Intelsat
0.99230203;0.001652;14.6146;348.2313;190.3413;166.3697;0;-2.21E-6;0;Intelsat
0.99230277;0.001653;14.6141;348.226;190.3404;0.8406;0;-2.34E-6;0;Intelsat
0.99230408;0.0016568;14.6129;348.2117;190.2808;166.0837;0;-2.64E-6;0;Intelsat
0.99230423;0.0016603;14.612;348.202;190.1949;162.8178;0;-2.82E-6;0;Intelsat
0.99230392;0.0016614;14.6114;348.1963;190.1876;12.0711;0;-2.91E-6;0;Intelsat
0.99230348;0.0016628;14.6111;348.1922;190.1333;161.6643;0;-2.97E-6;0;Intelsat
0.99230348;0.0016628;14.6111;348.1922;190.1333;161.6643;0;-2.97E-6;0;Intelsat
0.99230246;0.0016647;14.6102;348.1821;190.0777;171.7516;0;-3.09E-6;0;Intelsat
0.99230193;0.0016658;14.6097;348.1775;190.0675;339.8803;0;-3.14E-6;0;Intelsat
0.99230084;0.0016672;14.6093;348.1726;189.9973;159.3452;0;-3.17E-6;0;Intelsat
0.99230084;0.0016672;14.6093;348.1726;189.9973;159.3452;0;-3.17E-6;0;Intelsat
0.99229837;0.0016696;14.6084;348.1628;189.913;158.1892;0;-3.22E-6;0;Intelsat
0.99229549;0.001672;14.6075;348.153;189.8342;157.04;0;-3.23E-6;0;Intelsat
0.99229374;0.0016733;14.607;348.1474;189.7983;2.0338;0;-3.23E-6;0;Intelsat
0.99228966;0.0016779;14.6061;348.1377;189.6755;0.9145;0;-3.18E-6;0;Intelsat
0.99228769;0.00168;14.6057;348.1328;189.6171;180.3637;0;-3.14E-6;0;Intelsat
0.99228583;0.0016812;14.6052;348.1279;189.5695;359.779;0;-3.1E-6;0;Intelsat
0.99228115;0.0016864;14.6043;348.1182;189.4499;358.6724;0;-2.98E-6;0;Intelsat
0.99227395;0.0016947;14.6029;348.1035;189.302;176.9741;0;-2.74E-6;0;Intelsat
0.99227157;0.001697;14.6025;348.0986;189.2385;356.4143;0;-2.64E-6;0;Intelsat
0.99226608;0.0017018;14.6016;348.0886;189.1463;3.8077;0;-2.43E-6;0;Intelsat
0.99226138;0.0017077;14.6007;348.079;189.0678;354.0452;0;-2.2E-6;0;Intelsat
0.99225654;0.001714;14.5997;348.0693;188.9892;352.879;0;-1.96E-6;0;Intelsat
0.99225161;0.0017206;14.5988;348.0594;188.9333;353.4666;0;-1.7E-6;0;Intelsat
0.99224959;0.0017238;14.5984;348.055;188.9194;151.3274;0;-1.59E-6;0;Intelsat
0.99224753;0.0017281;14.5979;348.0493;188.881;358.5479;0;-1.44E-6;0;Intelsat
0.99224341;0.0017358;14.597;348.0394;188.8477;357.4256;0;-1.18E-6;0;Intelsat
0.99223832;0.0017443;14.5957;348.0258;188.8456;130.8188;0;-8.4E-7;0;Intelsat
0.99223778;0.0017453;14.5956;348.0248;188.8369;167.4037;0;-8.2E-7;0;Intelsat
0.99223645;0.0017487;14.5952;348.0199;188.8509;346.7685;0;-7.0E-7;0;Intelsat
0.99223409;0.0017544;14.5943;348.01;188.8758;345.479;0;-4.7E-7;0;Intelsat
0.99223293;0.0017572;14.5939;348.005;188.8804;164.855;0;-3.6E-7;0;Intelsat
0.99223229;0.0017602;14.5934;348.0001;188.9062;344.1851;0;-2.6E-7;0;Intelsat
0.99223071;0.0017643;14.5926;347.9902;188.9576;342.8696;0;-7.0E-8;0;Intelsat
0.99223031;0.0017658;14.5921;347.9853;188.9765;162.2375;0;2.0E-8;0;Intelsat
0.99223026;0.0017681;14.5917;347.9804;189.009;341.5774;0;1.1E-7;0;Intelsat
0.99223032;0.0017727;14.5908;347.9706;189.0585;340.266;0;2.6E-7;0;Intelsat
0.99223128;0.0017765;14.5899;347.9608;189.105;338.9623;0;3.9E-7;0;Intelsat
0.99223152;0.0017762;14.5896;347.9585;189.1189;61.9672;0;4.1E-7;0;Intelsat
0.99223229;0.0017809;14.5888;347.9504;189.1445;3.2379;0;4.9E-7;0;Intelsat
0.99223485;0.001784;14.5879;347.9406;189.177;1.9606;0;5.6E-7;0;Intelsat
0.99223766;0.0017881;14.587;347.9308;189.1992;0.6796;0;5.9E-7;0;Intelsat
0.99224056;0.0017919;14.5861;347.921;189.2109;359.4102;0;5.9E-7;0;Intelsat
0.99224247;0.0017938;14.5856;347.916;189.1952;178.7929;0;5.8E-7;0;Intelsat
0.99224849;0.0017983;14.5842;347.9014;189.2038;356.9088;0;4.9E-7;0;Intelsat
0.99225291;0.0018023;14.5833;347.8915;189.1913;355.6528;0;4.0E-7;0;Intelsat
0.99225698;0.0018052;14.5823;347.8817;189.1652;354.426;0;2.8E-7;0;Intelsat
0.99226164;0.001809;14.5814;347.8719;189.1357;353.233;0;1.3E-7;0;Intelsat
0.99226651;0.0018141;14.5804;347.8621;189.1079;352.001;0;-4.0E-8;0;Intelsat
0.99227122;0.0018188;14.5795;347.8523;189.0765;350.8082;0;-2.3E-7;0;Intelsat
0.99227297;0.0018218;14.579;347.8475;189.0844;165.1383;0;-3.3E-7;0;Intelsat
0.99227746;0.0018273;14.5781;347.8374;189.0682;174.0708;0;-5.4E-7;0;Intelsat
0.99228066;0.0018302;14.5776;347.8312;189.0176;40.6434;0;-6.7E-7;0;Intelsat
0.99228398;0.0018344;14.5768;347.8229;188.9964;347.1186;0;-8.6E-7;0;Intelsat
0.99228752;0.0018404;14.5759;347.813;188.9908;345.8981;0;-1.08E-6;0;Intelsat
0.99229025;0.0018454;14.575;347.8031;188.9818;344.6792;0;-1.3E-6;0;Intelsat
0.99229278;0.0018511;14.5741;347.7932;188.9943;343.4177;0;-1.52E-6;0;Intelsat
0.99229511;0.0018575;14.5732;347.7833;189.0257;342.1524;0;-1.74E-6;0;Intelsat
0.99229674;0.0018634;14.5723;347.7733;189.0682;340.8719;0;-1.95E-6;0;Intelsat
0.99229793;0.0018693;14.5714;347.7627;189.1267;5.1772;0;-2.15E-6;0;Intelsat
0.99229807;0.0018759;14.5705;347.7527;189.2004;3.844;0;-2.33E-6;0;Intelsat
